IRIDIUM 39              
1 25042U 97069D   25141.61465576  .00000510  00000+0  12816-3 0  9993
2 25042  86.3946 222.5151 0019159  42.0446 318.2224 14.49191231445116
IRIDIUM 38              
1 25043U 97069E   25141.51977100  .00000375  00000+0  11735-3 0  9992
2 25043  86.3969 244.3681 0002970 136.2579 223.8854 14.38095782442128
IRIDIUM 42              
1 25077U 97077A   25141.56290361  .00000352  00000+0  11367-3 0  9996
2 25077  86.3965 250.4881 0002130 114.9510 245.1909 14.36331828437378
IRIDIUM 44              
1 25078U 97077B   25141.51972049  .00000365  00000+0  10916-3 0  9995
2 25078  86.3983 232.4993 0004098 104.7566 255.4087 14.40221816439863
IRIDIUM 45              
1 25104U 97082A   25141.49291616  .00020240  00000+0  73394-3 0  9995
2 25104  86.3595  60.8447 0122211  72.1213 289.3314 15.21332316447983
IRIDIUM 24              
1 25105U 97082B   25141.59650377  .00000471  00000+0  13727-3 0  9998
2 25105  86.3890  91.5792 0011998 155.2128 204.9651 14.42073604439389
IRIDIUM 51              
1 25262U 98018A   25141.24168856  .00042362  00000+0  98356-3 0  9996
2 25262  86.3840  69.1565 0089220 356.5555   3.5071 15.38022912442880
IRIDIUM 57              
1 25273U 98019B   25141.55132454  .00000312  00000+0  10105-3 0  9993
2 25273  86.3968 156.4200 0002313  92.6434 267.5027 14.35876220420964
